ONEWEB-0648             
1 55811U 23029R   25272.71345884  .00000266  00000+0  68259-3 0  9990
2 55811  87.9055 341.5824 0001183 128.6527 231.4709 13.14504635125171
ONEWEB-0649             
1 55812U 23029S   25272.95503532  .00000126  00000+0  28161-3 0  9996
2 55812  87.9285 356.7355 0001494 113.7898 246.3391 13.19726705124603
ONEWEB-0650             
1 55813U 23029T   25272.95031808  .00000122  00000+0  27313-3 0  9993
2 55813  87.9279 356.7461 0001748 106.7506 253.3819 13.19725011124573
ONEWEB-0652             
1 55814U 23029U   25272.92275279  .00000029  00000+0  44287-4 0  9999
2 55814  87.9070 341.5584 0001969  96.4096 263.7258 13.14501070125176
ONEWEB-0653             
1 55815U 23029V   25273.13525886 -.00000106  00000+0 -32091-3 0  9993
2 55815  87.9071 341.5059 0001817  92.0803 268.0535 13.14501949125233
ONEWEB-0654             
1 55816U 23029W   25273.20661463 -.00000058  00000+0 -18995-3 0  9997
2 55816  87.9074 341.4900 0002060  89.8683 270.2683 13.14501495125260
ONEWEB-0656             
1 55817U 23029X   25273.13103317 -.00000004  00000+0 -42146-4 0  9996
2 55817  87.9249 326.2809 0002140  85.5868 274.5509 13.20770541126825
ONEWEB-0657             
1 55818U 23029Y   25273.24883890  .00000102  00000+0  22127-3 0  9993
2 55818  87.9273 356.6908 0002628 101.0151 259.1278 13.19726032124622
ONEWEB-0658             
1 55819U 23029Z   25272.78918011  .00000104  00000+0  22729-3 0  9996
2 55819  87.9291 356.7218 0001735 115.8466 244.2846 13.19728345124577
ONEWEB-0660             
1 55820U 23029AA  25273.18442035  .00000275  00000+0  70710-3 0  9993
2 55820  87.9078 341.4678 0001523 100.1854 259.9447 13.14502413125242
ONEWEB-0661             
1 55821U 23029AB  25273.21931209 -.00000151  00000+0 -44094-3 0  9995
2 55821  87.9070 341.5316 0001497  94.7944 265.3357 13.14503167125230
ONEWEB-0662             
1 55822U 23029AC  25272.72136635  .00000345  00000+0  89638-3 0  9997
2 55822  87.9069 341.6357 0001465 100.8327 259.2968 13.14502541125217
ONEWEB-0663             
1 55823U 23029AD  25273.18220633  .00000067  00000+0  13307-3 0  9992
2 55823  87.9266 326.3299 0001477 102.9256 257.2042 13.20847494126824
ONEWEB-0664             
1 55824U 23029AE  25272.89113022 -.00000516  00000+0 -13022-2 0  9997
2 55824  87.9246 326.4055 0001811  95.3642 264.7698 13.20774080126785
ONEWEB-0665             
1 55825U 23029AF  25273.21614274 -.00000147  00000+0 -43107-3 0  9998
2 55825  87.9073 341.5085 0001548 103.6810 256.4492 13.14503468125256
ONEWEB-0666             
1 55826U 23029AG  25273.18784202  .00000038  00000+0  61558-4 0  9992
2 55826  87.9247 326.3344 0002646  96.0863 264.0572 13.20772892126837
