[{"OBJECT_NAME":"ONEWEB-0648","OBJECT_ID":"2023-029R","EPOCH":"2025-09-29T17:07:22.843776","MEAN_MOTION":13.14504635,"ECCENTRICITY":0.00011832,"INCLINATION":87.9055,"RA_OF_ASC_NODE":341.5824,"ARG_OF_PERICENTER":128.6527,"MEAN_ANOMALY":231.4709,"EPHEMERIS_TYPE":0,"CLASSIFICATION_TYPE":"U","NORAD_CAT_ID":55811,"ELEMENT_SET_NO":999,"REV_AT_EPOCH":12517,"BSTAR":0.00068259368,"MEAN_MOTION_DOT":2.66e-6,"MEAN_MOTION_DDOT":0},{"OBJECT_NAME":"ONEWEB-0649","OBJECT_ID":"2023-029S","EPOCH":"2025-09-29T22:55:15.051648","MEAN_MOTION":13.19726705,"ECCENTRICITY":0.0001494,"INCLINATION":87.9285,"RA_OF_ASC_NODE":356.7355,"ARG_OF_PERICENTER":113.7898,"MEAN_ANOMALY":246.3391,"EPHEMERIS_TYPE":0,"CLASSIFICATION_TYPE":"U","NORAD_CAT_ID":55812,"ELEMENT_SET_NO":999,"REV_AT_EPOCH":12460,"BSTAR":0.00028161,"MEAN_MOTION_DOT":1.26e-6,"MEAN_MOTION_DDOT":0},{"OBJECT_NAME":"ONEWEB-0650","OBJECT_ID":"2023-029T","EPOCH":"2025-09-29T22:48:27.482112","MEAN_MOTION":13.19725011,"ECCENTRICITY":0.0001748,"INCLINATION":87.9279,"RA_OF_ASC_NODE":356.7461,"ARG_OF_PERICENTER":106.7506,"MEAN_ANOMALY":253.3819,"EPHEMERIS_TYPE":0,"CLASSIFICATION_TYPE":"U","NORAD_CAT_ID":55813,"ELEMENT_SET_NO":999,"REV_AT_EPOCH":12457,"BSTAR":0.00027313,"MEAN_MOTION_DOT":1.22e-6,"MEAN_MOTION_DDOT":0},{"OBJECT_NAME":"ONEWEB-0652","OBJECT_ID":"2023-029U","EPOCH":"2025-09-29T22:08:45.841056","MEAN_MOTION":13.1450107,"ECCENTRICITY":0.0001969,"INCLINATION":87.907,"RA_OF_ASC_NODE":341.5584,"ARG_OF_PERICENTER":96.4096,"MEAN_ANOMALY":263.7258,"EPHEMERIS_TYPE":0,"CLASSIFICATION_TYPE":"U","NORAD_CAT_ID":55814,"ELEMENT_SET_NO":999,"REV_AT_EPOCH":12517,"BSTAR":4.4287e-5,"MEAN_MOTION_DOT":2.9e-7,"MEAN_MOTION_DDOT":0},{"OBJECT_NAME":"ONEWEB-0653","OBJECT_ID":"2023-029V","EPOCH":"2025-09-30T03:14:46.365504","MEAN_MOTION":13.14501949,"ECCENTRICITY":0.0001817,"INCLINATION":87.9071,"RA_OF_ASC_NODE":341.5059,"ARG_OF_PERICENTER":92.0803,"MEAN_ANOMALY":268.0535,"EPHEMERIS_TYPE":0,"CLASSIFICATION_TYPE":"U","NORAD_CAT_ID":55815,"ELEMENT_SET_NO":999,"REV_AT_EPOCH":12523,"BSTAR":-0.00032090574,"MEAN_MOTION_DOT":-1.06e-6,"MEAN_MOTION_DDOT":0},{"OBJECT_NAME":"ONEWEB-0654","OBJECT_ID":"2023-029W","EPOCH":"2025-09-30T04:57:31.504032","MEAN_MOTION":13.14501495,"ECCENTRICITY":0.00020609,"INCLINATION":87.9074,"RA_OF_ASC_NODE":341.49,"ARG_OF_PERICENTER":89.8683,"MEAN_ANOMALY":270.2683,"EPHEMERIS_TYPE":0,"CLASSIFICATION_TYPE":"U","NORAD_CAT_ID":55816,"ELEMENT_SET_NO":999,"REV_AT_EPOCH":12526,"BSTAR":-0.00018995173,"MEAN_MOTION_DOT":-5.8e-7,"MEAN_MOTION_DDOT":0},{"OBJECT_NAME":"ONEWEB-0656","OBJECT_ID":"2023-029X","EPOCH":"2025-09-30T03:08:41.265888","MEAN_MOTION":13.20770541,"ECCENTRICITY":0.00021406,"INCLINATION":87.9249,"RA_OF_ASC_NODE":326.2809,"ARG_OF_PERICENTER":85.5868,"MEAN_ANOMALY":274.5509,"EPHEMERIS_TYPE":0,"CLASSIFICATION_TYPE":"U","NORAD_CAT_ID":55817,"ELEMENT_SET_NO":999,"REV_AT_EPOCH":12682,"BSTAR":-4.2146365e-5,"MEAN_MOTION_DOT":-4.0e-8,"MEAN_MOTION_DDOT":0},{"OBJECT_NAME":"ONEWEB-0657","OBJECT_ID":"2023-029Y","EPOCH":"2025-09-30T05:58:19.680960","MEAN_MOTION":13.19726032,"ECCENTRICITY":0.00026285,"INCLINATION":87.9273,"RA_OF_ASC_NODE":356.6908,"ARG_OF_PERICENTER":101.0151,"MEAN_ANOMALY":259.1278,"EPHEMERIS_TYPE":0,"CLASSIFICATION_TYPE":"U","NORAD_CAT_ID":55818,"ELEMENT_SET_NO":999,"REV_AT_EPOCH":12462,"BSTAR":0.00022126978,"MEAN_MOTION_DOT":1.02e-6,"MEAN_MOTION_DDOT":0},{"OBJECT_NAME":"ONEWEB-0658","OBJECT_ID":"2023-029Z","EPOCH":"2025-09-29T18:56:25.161504","MEAN_MOTION":13.19728345,"ECCENTRICITY":0.00017357,"INCLINATION":87.9291,"RA_OF_ASC_NODE":356.7218,"ARG_OF_PERICENTER":115.8466,"MEAN_ANOMALY":244.2846,"EPHEMERIS_TYPE":0,"CLASSIFICATION_TYPE":"U","NORAD_CAT_ID":55819,"ELEMENT_SET_NO":999,"REV_AT_EPOCH":12457,"BSTAR":0.00022728993,"MEAN_MOTION_DOT":1.04e-6,"MEAN_MOTION_DDOT":0},{"OBJECT_NAME":"ONEWEB-0660","OBJECT_ID":"2023-029AA","EPOCH":"2025-09-30T04:25:33.918240","MEAN_MOTION":13.14502413,"ECCENTRICITY":0.00015234,"INCLINATION":87.9078,"RA_OF_ASC_NODE":341.4678,"ARG_OF_PERICENTER":100.1854,"MEAN_ANOMALY":259.9447,"EPHEMERIS_TYPE":0,"CLASSIFICATION_TYPE":"U","NORAD_CAT_ID":55820,"ELEMENT_SET_NO":999,"REV_AT_EPOCH":12524,"BSTAR":0.00070710454,"MEAN_MOTION_DOT":2.75e-6,"MEAN_MOTION_DDOT":0},{"OBJECT_NAME":"ONEWEB-0661","OBJECT_ID":"2023-029AB","EPOCH":"2025-09-30T05:15:48.564576","MEAN_MOTION":13.14503167,"ECCENTRICITY":0.00014975,"INCLINATION":87.907,"RA_OF_ASC_NODE":341.5316,"ARG_OF_PERICENTER":94.7944,"MEAN_ANOMALY":265.3357,"EPHEMERIS_TYPE":0,"CLASSIFICATION_TYPE":"U","NORAD_CAT_ID":55821,"ELEMENT_SET_NO":999,"REV_AT_EPOCH":12523,"BSTAR":-0.00044094394,"MEAN_MOTION_DOT":-1.51e-6,"MEAN_MOTION_DDOT":0},{"OBJECT_NAME":"ONEWEB-0662","OBJECT_ID":"2023-029AC","EPOCH":"2025-09-29T17:18:46.052640","MEAN_MOTION":13.14502541,"ECCENTRICITY":0.00014657,"INCLINATION":87.9069,"RA_OF_ASC_NODE":341.6357,"ARG_OF_PERICENTER":100.8327,"MEAN_ANOMALY":259.2968,"EPHEMERIS_TYPE":0,"CLASSIFICATION_TYPE":"U","NORAD_CAT_ID":55822,"ELEMENT_SET_NO":999,"REV_AT_EPOCH":12521,"BSTAR":0.00089637646,"MEAN_MOTION_DOT":3.45e-6,"MEAN_MOTION_DDOT":0},{"OBJECT_NAME":"ONEWEB-0663","OBJECT_ID":"2023-029AD","EPOCH":"2025-09-30T04:22:22.626912","MEAN_MOTION":13.20847494,"ECCENTRICITY":0.00014771,"INCLINATION":87.9266,"RA_OF_ASC_NODE":326.3299,"ARG_OF_PERICENTER":102.9256,"MEAN_ANOMALY":257.2042,"EPHEMERIS_TYPE":0,"CLASSIFICATION_TYPE":"U","NORAD_CAT_ID":55823,"ELEMENT_SET_NO":999,"REV_AT_EPOCH":12682,"BSTAR":0.0001330706,"MEAN_MOTION_DOT":6.7e-7,"MEAN_MOTION_DDOT":0},{"OBJECT_NAME":"ONEWEB-0664","OBJECT_ID":"2023-029AE","EPOCH":"2025-09-29T21:23:13.651008","MEAN_MOTION":13.2077408,"ECCENTRICITY":0.0001811,"INCLINATION":87.9246,"RA_OF_ASC_NODE":326.4055,"ARG_OF_PERICENTER":95.3642,"MEAN_ANOMALY":264.7698,"EPHEMERIS_TYPE":0,"CLASSIFICATION_TYPE":"U","NORAD_CAT_ID":55824,"ELEMENT_SET_NO":999,"REV_AT_EPOCH":12678,"BSTAR":-0.0013022,"MEAN_MOTION_DOT":-5.16e-6,"MEAN_MOTION_DDOT":0},{"OBJECT_NAME":"ONEWEB-0665","OBJECT_ID":"2023-029AF","EPOCH":"2025-09-30T05:11:14.732736","MEAN_MOTION":13.14503468,"ECCENTRICITY":0.00015485,"INCLINATION":87.9073,"RA_OF_ASC_NODE":341.5085,"ARG_OF_PERICENTER":103.681,"MEAN_ANOMALY":256.4492,"EPHEMERIS_TYPE":0,"CLASSIFICATION_TYPE":"U","NORAD_CAT_ID":55825,"ELEMENT_SET_NO":999,"REV_AT_EPOCH":12525,"BSTAR":-0.00043107079,"MEAN_MOTION_DOT":-1.47e-6,"MEAN_MOTION_DDOT":0},{"OBJECT_NAME":"ONEWEB-0666","OBJECT_ID":"2023-029AG","EPOCH":"2025-09-30T04:30:29.550528","MEAN_MOTION":13.20772892,"ECCENTRICITY":0.00026469,"INCLINATION":87.9247,"RA_OF_ASC_NODE":326.3344,"ARG_OF_PERICENTER":96.0863,"MEAN_ANOMALY":264.0572,"EPHEMERIS_TYPE":0,"CLASSIFICATION_TYPE":"U","NORAD_CAT_ID":55826,"ELEMENT_SET_NO":999,"REV_AT_EPOCH":12683,"BSTAR":6.1557656e-5,"MEAN_MOTION_DOT":3.8e-7,"MEAN_MOTION_DDOT":0}]
